[{"OBJECT_NAME":"STARLINK-2555","OBJECT_ID":"2021-036R","EPOCH":"2026-03-09T07:42:55.637856","MEAN_MOTION":15.30217775,"ECCENTRICITY":0.0001444,"INCLINATION":53.1596,"RA_OF_ASC_NODE":79.5263,"ARG_OF_PERICENTER":93.9997,"MEAN_ANOMALY":266.1168,"EPHEMERIS_TYPE":0,"CLASSIFICATION_TYPE":"U","NORAD_CAT_ID":48291,"ELEMENT_SET_NO":999,"REV_AT_EPOCH":26831,"BSTAR":0.00027378708,"MEAN_MOTION_DOT":7.762e-5,"MEAN_MOTION_DDOT":0},{"OBJECT_NAME":"DONGPO 10","OBJECT_ID":"2022-167H","EPOCH":"2026-03-09T22:44:56.137344","MEAN_MOTION":15.322785,"ECCENTRICITY":0.00061655,"INCLINATION":97.685,"RA_OF_ASC_NODE":235.0962,"ARG_OF_PERICENTER":106.9526,"MEAN_ANOMALY":253.2392,"EPHEMERIS_TYPE":0,"CLASSIFICATION_TYPE":"U","NORAD_CAT_ID":54689,"ELEMENT_SET_NO":999,"REV_AT_EPOCH":18015,"BSTAR":0.00049390523,"MEAN_MOTION_DOT":0.00015333,"MEAN_MOTION_DDOT":0}]
